FENGYUN 1C DEB          
1 36199U 99025DTY 17345.16359822  .00000144  00000-0  74671-4 0  9997
2 36199  98.6322  57.0967 0096118  11.8135 348.5269 14.26217246232782
